start=new Date('2022-11-02T00:00:00.000Z').valueOf();
sats=[{"MEAN_ANOMALY":"316.6060","SITE":"AFETR","MEAN_MOTION":"15.06399457","RA_OF_ASC_NODE":"282.8553","INCLINATION":"53.0571","LAUNCH_DATE":"2019-11-11","OBJECT_TYPE":"PAYLOAD","ARG_OF_PERICENTER":"43.5102","PERIAPSIS":"545.696","APOAPSIS":"548.735","FILE":"3640409","PERIOD":"95.592","CENTER_NAME":"EARTH","NORAD_CAT_ID":"44713","OBJECT_NAME":"STARLINK-1007","RCS_SIZE":"LARGE","CLASSIFICATION_TYPE":"U","EPHEMERIS_TYPE":"0","ELEMENT_SET_NO":"999","TIME_SYSTEM":"UTC","MEAN_ELEMENT_THEORY":"SGP4","TLE_LINE2":"2 44713  53.0571 282.8553 0002194  43.5102 316.6060 15.06399457164211","REV_AT_EPOCH":"16421","TLE_LINE1":"1 44713U 19074A   22305.36028828  .00000903  00000-0  79516-4 0  9993","MEAN_MOTION_DDOT":"0.0000000000000","COUNTRY_CODE":"US","GP_ID":"216656656","SEMIMAJOR_AXIS":"6925.350","REF_FRAME":"TEME","EPOCH":"2022-11-01T08:38:48.907392","DECAY_DATE":null,"OBJECT_ID":"2019-074A","BSTAR":"0.00007951600000","ECCENTRICITY":"0.00021940","MEAN_MOTION_DOT":"0.00000903"},{"MEAN_MOTION_DDOT":"0.0000000000000","TLE_LINE1":"1 44714U 19074B   22305.67084668  .00000961  00000-0  83378-4 0  9997","COUNTRY_CODE":"US","GP_ID":"216683146","SEMIMAJOR_AXIS":"6925.353","REF_FRAME":"TEME","EPOCH":"2022-11-01T16:06:01.153152","MEAN_ELEMENT_THEORY":"SGP4","TLE_LINE2":"2 44714  53.0534 281.4546 0001591  48.9339 311.1787 15.06398596164263","REV_AT_EPOCH":"16426","ECCENTRICITY":"0.00015910","MEAN_MOTION_DOT":"0.00000961","DECAY_DATE":null,"OBJECT_ID":"2019-074B","BSTAR":"0.00008337800000","INCLINATION":"53.0534","LAUNCH_DATE":"2019-11-11","OBJECT_TYPE":"PAYLOAD","ARG_OF_PERICENTER":"48.9339","PERIAPSIS":"546.116","MEAN_ANOMALY":"311.1787","SITE":"AFETR","MEAN_MOTION":"15.06398596","RA_OF_ASC_NODE":"281.4546","OBJECT_NAME":"STARLINK-1008","RCS_SIZE":"LARGE","CLASSIFICATION_TYPE":"U","EPHEMERIS_TYPE":"0","TIME_SYSTEM":"UTC","ELEMENT_SET_NO":"999","APOAPSIS":"548.320","FILE":"3640431","NORAD_CAT_ID":"44714","PERIOD":"95.592","CENTER_NAME":"EARTH"},{"PERIAPSIS":"545.992","ARG_OF_PERICENTER":"59.8034","LAUNCH_DATE":"2019-11-11","INCLINATION":"53.0545","OBJECT_TYPE":"PAYLOAD","SITE":"AFETR","RA_OF_ASC_NODE":"282.7052","MEAN_MOTION":"15.06407858","MEAN_ANOMALY":"300.3126","EPHEMERIS_TYPE":"0","CLASSIFICATION_TYPE":"U","TIME_SYSTEM":"UTC","ELEMENT_SET_NO":"999","RCS_SIZE":"LARGE","OBJECT_NAME":"STARLINK-1009","NORAD_CAT_ID":"44715","PERIOD":"95.592","CENTER_NAME":"EARTH","APOAPSIS":"548.387","FILE":"3640409","GP_ID":"216657150","SEMIMAJOR_AXIS":"6925.324","EPOCH":"2022-11-01T09:27:56.077056","REF_FRAME":"TEME","MEAN_MOTION_DDOT":"0.0000000000000","TLE_LINE1":"1 44715U 19074C   22305.39439904  .00002356  00000-0  17697-3 0  9994","COUNTRY_CODE":"US","REV_AT_EPOCH":"16421","TLE_LINE2":"2 44715  53.0545 282.7052 0001729  59.8034 300.3126 15.06407858164212","MEAN_ELEMENT_THEORY":"SGP4","ECCENTRICITY":"0.00017290","MEAN_MOTION_DOT":"0.00002356","BSTAR":"0.00017697000000","DECAY_DATE":null,"OBJECT_ID":"2019-074C"},{"OBJECT_ID":"2019-074D","DECAY_DATE":null,"BSTAR":"0.00000785710000","MEAN_MOTION_DOT":"-0.00000165","ECCENTRICITY":"0.00019880","MEAN_ELEMENT_THEORY":"SGP4","TLE_LINE2":"2 44716  53.0541 281.4255 0001988  43.4546 316.6599 15.06401831164246","REV_AT_EPOCH":"16424","COUNTRY_CODE":"US","MEAN_MOTION_DDOT":"0.0000000000000","TLE_LINE1":"1 44716U 19074D   22305.67821822 -.00000165  00000-0  78571-5 0  9997","REF_FRAME":"TEME","EPOCH":"2022-11-01T16:16:38.054208","SEMIMAJOR_AXIS":"6925.343","GP_ID":"216681648","FILE":"3640431","APOAPSIS":"548.585","PERIOD":"95.592","NORAD_CAT_ID":"44716","CENTER_NAME":"EARTH","OBJECT_NAME":"STARLINK-1010","RCS_SIZE":"LARGE","ELEMENT_SET_NO":"999","TIME_SYSTEM":"UTC","CLASSIFICATION_TYPE":"U","EPHEMERIS_TYPE":"0","MEAN_ANOMALY":"316.6599","MEAN_MOTION":"15.06401831","RA_OF_ASC_NODE":"281.4255","SITE":"AFETR","OBJECT_TYPE":"PAYLOAD","LAUNCH_DATE":"2019-11-11","INCLINATION":"53.0541","ARG_OF_PERICENTER":"43.4546","PERIAPSIS":"545.831"},{"MEAN_ELEMENT_THEORY":"SGP4","REV_AT_EPOCH":"16417","TLE_LINE2":"2 44717  53.0560 300.8313 0002064  42.7672 317.3477 15.06402353164172","MEAN_MOTION_DDOT":"0.0000000000000","TLE_LINE1":"1 44717U 19074E   22305.80906715  .00001875  00000-0  14477-3 0  9999","COUNTRY_CODE":"US","SEMIMAJOR_AXIS":"6925.341","GP_ID":"216634463","EPOCH":"2022-11-01T19:25:03.401760","REF_FRAME":"TEME","DECAY_DATE":null,"OBJECT_ID":"2019-074E","BSTAR":"0.00014477000000","ECCENTRICITY":"0.00020640","MEAN_MOTION_DOT":"0.00001875","MEAN_ANOMALY":"317.3477","SITE":"AFETR","RA_OF_ASC_NODE":"300.8313","MEAN_MOTION":"15.06402353","INCLINATION":"53.0560","LAUNCH_DATE":"2019-11-11","OBJECT_TYPE":"PAYLOAD","PERIAPSIS":"545.777","ARG_OF_PERICENTER":"42.7672","APOAPSIS":"548.636","FILE":"3640299","NORAD_CAT_ID":"44717","PERIOD":"95.592","CENTER_NAME":"EARTH","RCS_SIZE":"LARGE","OBJECT_NAME":"STARLINK-1011","EPHEMERIS_TYPE":"0","CLASSIFICATION_TYPE":"U","ELEMENT_SET_NO":"999","TIME_SYSTEM":"UTC"},{"MEAN_ANOMALY":"311.6130","SITE":"AFETR","MEAN_MOTION":"15.06405347","RA_OF_ASC_NODE":"281.5628","INCLINATION":"53.0553","LAUNCH_DATE":"2019-11-11","OBJECT_TYPE":"PAYLOAD","ARG_OF_PERICENTER":"48.5056","PERIAPSIS":"545.604","APOAPSIS":"548.790","FILE":"3640431","CENTER_NAME":"EARTH","PERIOD":"95.592","NORAD_CAT_ID":"44718","OBJECT_NAME":"STARLINK-1012","RCS_SIZE":"LARGE","CLASSIFICATION_TYPE":"U","EPHEMERIS_TYPE":"0","TIME_SYSTEM":"UTC","ELEMENT_SET_NO":"999","MEAN_ELEMENT_THEORY":"SGP4","TLE_LINE2":"2 44718  53.0553 281.5628 0002300  48.5056 311.6130 15.06405347164250","REV_AT_EPOCH":"16425","TLE_LINE1":"1 44718U 19074F   22305.64873391  .00000928  00000-0  81187-4 0  9996","MEAN_MOTION_DDOT":"0.0000000000000","COUNTRY_CODE":"US","SEMIMAJOR_AXIS":"6925.332","GP_ID":"216682646","REF_FRAME":"TEME","EPOCH":"2022-11-01T15:34:10.609824","DECAY_DATE":null,"OBJECT_ID":"2019-074F","BSTAR":"0.00008118700000","ECCENTRICITY":"0.00023000","MEAN_MOTION_DOT":"0.00000928"},{"MEAN_ELEMENT_THEORY":"SGP4","REV_AT_EPOCH":"16538","TLE_LINE2":"2 44719  53.0544 281.5301 0001934  50.0823 310.0335 15.06394835165385","COUNTRY_CODE":"US","TLE_LINE1":"1 44719U 19074G   22305.65610589  .00001442  00000-0  11570-3 0  9996","MEAN_MOTION_DDOT":"0.0000000000000","EPOCH":"2022-11-01T15:44:47.548896","REF_FRAME":"TEME","GP_ID":"216682895","SEMIMAJOR_AXIS":"6925.364","OBJECT_ID":"2019-074G","DECAY_DATE":null,"BSTAR":"0.00011570000000","MEAN_MOTION_DOT":"0.00001442","ECCENTRICITY":"0.00019340","MEAN_ANOMALY":"310.0335","RA_OF_ASC_NODE":"281.5301","MEAN_MOTION":"15.06394835","SITE":"AFETR","OBJECT_TYPE":"PAYLOAD","LAUNCH_DATE":"2019-11-11","INCLINATION":"53.0544","PERIAPSIS":"545.890","ARG_OF_PERICENTER":"50.0823","FILE":"3640431","APOAPSIS":"548.569","NORAD_CAT_ID":"44719","PERIOD":"95.592","CENTER_NAME":"EARTH","RCS_SIZE":"LARGE","OBJECT_NAME":"STARLINK-1013","ELEMENT_SET_NO":"999","TIME_SYSTEM":"UTC","EPHEMERIS_TYPE":"0","CLASSIFICATION_TYPE":"U"},{"ARG_OF_PERICENTER":"51.8528","PERIAPSIS":"545.370","LAUNCH_DATE":"2019-11-11","INCLINATION":"53.0557","OBJECT_TYPE":"PAYLOAD","SITE":"AFETR","MEAN_MOTION":"15.06403863","RA_OF_ASC_NODE":"281.4332","MEAN_ANOMALY":"308.2699","CLASSIFICATION_TYPE":"U","EPHEMERIS_TYPE":"0","ELEMENT_SET_NO":"999","TIME_SYSTEM":"UTC","OBJECT_NAME":"STARLINK-1014","RCS_SIZE":"LARGE","PERIOD":"95.592","NORAD_CAT_ID":"44720","CENTER_NAME":"EARTH","APOAPSIS":"549.033","FILE":"3640431","SEMIMAJOR_AXIS":"6925.337","GP_ID":"216682148","REF_FRAME":"TEME","EPOCH":"2022-11-01T16:09:58.925952","TLE_LINE1":"1 44720U 19074H   22305.67359868  .00001599  00000-0  12626-3 0  9996","MEAN_MOTION_DDOT":"0.0000000000000","COUNTRY_CODE":"US","TLE_LINE2":"2 44720  53.0557 281.4332 0002645  51.8528 308.2699 15.06403863164265","REV_AT_EPOCH":"16426","MEAN_ELEMENT_THEORY":"SGP4","ECCENTRICITY":"0.00026450","MEAN_MOTION_DOT":"0.00001599","BSTAR":"0.00012626000000","DECAY_DATE":null,"OBJECT_ID":"2019-074H"},{"OBJECT_NAME":"STARLINK-1015","RCS_SIZE":"LARGE","TIME_SYSTEM":"UTC","ELEMENT_SET_NO":"999","CLASSIFICATION_TYPE":"U","EPHEMERIS_TYPE":"0","FILE":"3640431","APOAPSIS":"548.634","NORAD_CAT_ID":"44721","PERIOD":"95.592","CENTER_NAME":"EARTH","OBJECT_TYPE":"PAYLOAD","LAUNCH_DATE":"2019-11-11","INCLINATION":"53.0529","ARG_OF_PERICENTER":"44.2460","PERIAPSIS":"545.811","MEAN_ANOMALY":"315.8691","MEAN_MOTION":"15.06397104","RA_OF_ASC_NODE":"281.4951","SITE":"AFETR","MEAN_MOTION_DOT":"0.00002193","ECCENTRICITY":"0.00020380","OBJECT_ID":"2019-074J","DECAY_DATE":null,"BSTAR":"0.00016611000000","COUNTRY_CODE":"US","MEAN_MOTION_DDOT":"0.0000000000000","TLE_LINE1":"1 44721U 19074J   22305.66347563  .00002193  00000-0  16611-3 0  9994","REF_FRAME":"TEME","EPOCH":"2022-11-01T15:55:24.294432","SEMIMAJOR_AXIS":"6925.357","GP_ID":"216682398","MEAN_ELEMENT_THEORY":"SGP4","TLE_LINE2":"2 44721  53.0529 281.4951 0002038  44.2460 315.8691 15.06397104164254","REV_AT_EPOCH":"16425"},{"MEAN_ELEMENT_THEORY":"SGP4","TLE_LINE2":"2 44722  53.0549 281.4686 0001964  45.4890 314.6259 15.06400182164268","REV_AT_EPOCH":"16426","COUNTRY_CODE":"US","MEAN_MOTION_DDOT":"0.0000000000000","TLE_LINE1":"1 44722U 19074K   22305.66621590  .00000385  00000-0  44737-4 0  9992","REF_FRAME":"TEME","EPOCH":"2022-11-01T15:59:21.053760","GP_ID":"216683147","SEMIMAJOR_AXIS":"6925.348","OBJECT_ID":"2019-074K","DECAY_DATE":null,"BSTAR":"0.00004473700000","MEAN_MOTION_DOT":"0.00000385","ECCENTRICITY":"0.00019640","MEAN_ANOMALY":"314.6259","MEAN_MOTION":"15.06400182","RA_OF_ASC_NODE":"281.4686","SITE":"AFETR","OBJECT_TYPE":"PAYLOAD","INCLINATION":"53.0549","LAUNCH_DATE":"2019-11-11","ARG_OF_PERICENTER":"45.4890","PERIAPSIS":"545.853","FILE":"3640431","APOAPSIS":"548.573","PERIOD":"95.592","CENTER_NAME":"EARTH","NORAD_CAT_ID":"44722","OBJECT_NAME":"STARLINK-1016","RCS_SIZE":"LARGE","ELEMENT_SET_NO":"999","TIME_SYSTEM":"UTC","CLASSIFICATION_TYPE":"U","EPHEMERIS_TYPE":"0"}];
